[
  {
    "name": "PLEIADES NEO 3",
    "line1": "1 48268U 21034A   26020.82977170  .00000542  00000+0  75545-4 0  9999",
    "line2": "2 48268  97.8944  97.7106 0001259  89.6303 270.5054 14.81672673255838",
    "catNr": 48268
  },
  {
    "name": "PLEIADES NEO 4",
    "line1": "1 49070U 21073E   26020.86352429  .00002602  00000+0  33703-3 0  9990",
    "line2": "2 49070  97.8940  97.7397 0001361  92.3753 267.7615 14.81680026239555",
    "catNr": 49070
  }
]